NAVSTAR 51 (USA 166)    
1 27663U 03005A   26061.66100637 -.00000005  00000+0  00000+0 0  9990
2 27663  54.9077 219.1988 0148733  52.7044 129.5810  2.00566327169175
NAVSTAR 54 (USA 177)    
1 28190U 04009A   26061.44850810 -.00000005  00000+0  00000+0 0  9992
2 28190  54.9176 279.9987 0110878 169.0152  15.8009  2.00558110160804
NAVSTAR 56 (USA 180)    
1 28474U 04045A   26061.09234127 -.00000089  00000+0  00000+0 0  9997
2 28474  55.1960 329.2124 0170883 312.7311  38.2097  2.00573214156275
NAVSTAR 57 (USA 183)    
1 28874U 05038A   26061.34676233 -.00000001  00000+0  00000+0 0  9994
2 28874  54.9646 277.4881 0128856 295.3112 199.7188  2.00573091149694
METEOSAT-9 (MSG-2)      
1 28912U 05049B   26061.59713272  .00000112  00000+0  00000+0 0  9993
2 28912   9.1208  55.1996 0001907 219.8462 145.9946  1.00276214  5936
NAVSTAR 59 (USA 192)    
1 29601U 06052A   26060.72075898 -.00000001  00000+0  00000+0 0  9991
2 29601  54.9582 218.2634 0087916  89.3209 271.6418  2.00551399141257
NAVSTAR 60 (USA 196)    
1 32260U 07047A   26061.02770300  .00000011  00000+0  00000+0 0  9995
2 32260  54.0137  84.4816 0163584  85.9369 275.9982  2.00560797134661
NAVSTAR 61 (USA 199)    
1 32384U 07062A   26061.84488887 -.00000007  00000+0  00000+0 0  9991
2 32384  55.1160 278.4263 0032886 160.6557 197.5100  2.00553401133379
GOES 14                 
1 35491U 09033A   26061.69960778  .00000113  00000+0  00000+0 0  9997
2 35491   1.4145  84.4453 0002160 295.0799 235.5458  1.00123384  5523
EWS-G2 (GOES 15)        
1 36411U 10008A   26061.86055566  .00000005  00000+0  00000+0 0  9993
2 36411   1.0052  85.1762 0001655  24.0248  64.7263  1.00269153 58571
GSAT0101 (GALILEO-PFM)  
1 37846U 11060A   26053.46432651 -.00000082  00000+0  00000+0 0  9992
2 37846  57.0318 344.8758 0003975 357.0591   2.9533  1.70475478 89166
GSAT0102 (GALILEO-FM2)  
1 37847U 11060B   26060.06318653 -.00000106  00000+0  00000+0 0  9999
2 37847  57.0301 344.6971 0005422 341.2092 154.1953  1.70475778 89286
LUCH-5A                 
1 37951U 11074B   26061.63875796 -.00000061  00000+0  00000+0 0  9990
2 37951   8.4827  75.3733 0004065 242.1610 239.9010  1.00275091 51987
METEOSAT-10 (MSG-3)     
1 38552U 12035B   26061.73080794 -.00000019  00000+0  00000+0 0  9996
2 38552   4.4198  61.4700 0002487 292.1297  70.2445  1.00276905 49793
METOP-B                 
1 38771U 12049A   26061.75789492  .00000139  00000+0  83411-4 0  9991
2 38771  98.6657 115.3115 0001247 304.0928  56.0131 14.21441976698149
NAVSTAR 67 (USA 239)    
1 38833U 12053A   26060.62550247 -.00000018  00000+0  00000+0 0  9999
2 38833  53.5656 148.0073 0176910  64.7623 297.0865  2.00565726 97288
GSAT0103 (GALILEO-FM3)  
1 38857U 12055A   26061.13039064  .00000014  00000+0  00000+0 0  9998
2 38857  55.7369 104.4827 0005349 284.8926  75.1340  1.70473355 83189
